{
    "type": "FeatureCollection",
    "generator": "JOSM",
    "features": [
        {
            "type": "Feature",
            "properties": {
                "Location": "Spa Francorchamps",
                "Name": "Circuit de Spa-Francorchamps",
                "altitude": "413",
                "id": "be-1925",
                "length": "7004",
                "firstgp": "1950",
                "opened": "1925"
            },
            "geometry": {
                "type": "LineString",
                "coordinates": [
                    [
                        5.96502000000,
                        50.44425100000,
                        413.0
                    ],
                    [
                        5.96341900000,
                        50.44603300000,
                        427.0
                    ],
                    [
                        5.96340200000,
                        50.44611300000,
                        0.0
                    ],
                    [
                        5.96347300000,
                        50.44618400000,
                        0.0
                    ],
                    [
                        5.96362100000,
                        50.44621700000,
                        0.0
                    ],
                    [
                        5.96378600000,
                        50.44618800000,
                        0.0
                    ],
                    [
                        5.96431300000,
                        50.44601900000,
                        0.0
                    ],
                    [
                        5.96559200000,
                        50.44562800000,
                        0.0
                    ],
                    [
                        5.96620700000,
                        50.44538700000,
                        0.0
                    ],
                    [
                        5.96684700000,
                        50.44508500000,
                        0.0
                    ],
                    [
                        5.96742100000,
                        50.44477900000,
                        0.0
                    ],
                    [
                        5.96787600000,
                        50.44446300000,
                        0.0
                    ],
                    [
                        5.97032100000,
                        50.44260600000,
                        0.0
                    ],
                    [
                        5.97049300000,
                        50.44250200000,
                        0.0
                    ],
                    [
                        5.97078800000,
                        50.44238500000,
                        0.0
                    ],
                    [
                        5.97131500000,
                        50.44216800000,
                        0.0
                    ],
                    [
                        5.97154600000,
                        50.44202200000,
                        0.0
                    ],
                    [
                        5.97174100000,
                        50.44182400000,
                        0.0
                    ],
                    [
                        5.97186600000,
                        50.44164400000,
                        0.0
                    ],
                    [
                        5.97194900000,
                        50.44144200000,
                        0.0
                    ],
                    [
                        5.97202000000,
                        50.44106900000,
                        0.0
                    ],
                    [
                        5.97206100000,
                        50.44093700000,
                        0.0
                    ],
                    [
                        5.97213200000,
                        50.44081500000,
                        0.0
                    ],
                    [
                        5.97226800000,
                        50.44065500000
                    ,0.0],
                    [
                        5.97347600000,
                        50.43942400000
                    ,0.0],
                    [
                        5.97424500000,
                        50.43864200000
                    ,0.0],
                    [
                        5.97445800000,
                        50.43835000000
                    ,0.0],
                    [
                        5.97459400000,
                        50.43813300000
                    ,0.0],
                    [
                        5.97475400000,
                        50.43778400000
                    ,0.0],
                    [
                        5.97571900000,
                        50.43563900000
                    ,0.0],
                    [
                        5.97719900000,
                        50.43238200000
                    ,0.0],
                    [
                        5.97754200000,
                        50.43159900000
                    ,0.0],
                    [
                        5.97756000000,
                        50.43147200000
                    ,0.0],
                    [
                        5.97752400000,
                        50.43133100000
                    ,0.0],
                    [
                        5.97740600000,
                        50.43121800000
                    ,0.0],
                    [
                        5.97723400000,
                        50.43112300000
                    ,0.0],
                    [
                        5.97701500000,
                        50.43104800000
                    ,0.0],
                    [
                        5.97688500000,
                        50.43096800000
                    ,0.0],
                    [
                        5.97679600000,
                        50.43087400000
                    ,0.0],
                    [
                        5.97672500000,
                        50.43073200000
                    ,0.0],
                    [
                        5.97673700000,
                        50.43059100000
                    ,0.0],
                    [
                        5.97703300000,
                        50.42974700000
                    ,0.0],
                    [
                        5.97702700000,
                        50.42960100000
                    ,0.0],
                    [
                        5.97698000000,
                        50.42946900000
                    ,0.0],
                    [
                        5.97682000000,
                        50.42932300000
                    ,0.0],
                    [
                        5.97663000000,
                        50.42922400000
                    ,0.0],
                    [
                        5.97325700000,
                        50.42773900000
                    ,0.0],
                    [
                        5.97304400000,
                        50.42768200000
                    ,0.0],
                    [
                        5.97283100000,
                        50.42767800000
                    ,0.0],
                    [
                        5.97260600000,
                        50.42772000000
                    ,0.0],
                    [
                        5.97242200000,
                        50.42780500000
                    ,0.0],
                    [
                        5.97229200000,
                        50.42792700000
                    ,0.0],
                    [
                        5.97223900000,
                        50.42805000000
                    ,0.0],
                    [
                        5.97222700000,
                        50.42818200000
                    ,0.0],
                    [
                        5.97229200000,
                        50.42830500000
                    ,0.0],
                    [
                        5.97241000000,
                        50.42843200000
                    ,0.0],
                    [
                        5.97258200000,
                        50.42852100000
                    ,0.0],
                    [
                        5.97405600000,
                        50.42910100000
                    ,0.0],
                    [
                        5.97421600000,
                        50.42920500000
                    ,0.0],
                    [
                        5.97430400000,
                        50.42930900000
                    ,0.0],
                    [
                        5.97434000000,
                        50.42943100000
                    ,0.0],
                    [
                        5.97432200000,
                        50.42958200000
                    ,0.0],
                    [
                        5.97371200000,
                        50.43072300000
                    ,0.0],
                    [
                        5.97352300000,
                        50.43118900000
                    ,0.0],
                    [
                        5.97309100000,
                        50.43262700000
                    ,0.0],
                    [
                        5.97287800000,
                        50.43345200000
                    ,0.0],
                    [
                        5.97283100000,
                        50.43359300000
                    ,0.0],
                    [
                        5.97272400000,
                        50.43374400000
                    ,0.0],
                    [
                        5.97258200000,
                        50.43386700000
                    ,0.0],
                    [
                        5.97236900000,
                        50.43399900000
                    ,0.0],
                    [
                        5.97213200000,
                        50.43409800000
                    ,0.0],
                    [
                        5.97187200000,
                        50.43416400000
                    ,0.0],
                    [
                        5.97159900000,
                        50.43419200000
                    ,0.0],
                    [
                        5.97071700000,
                        50.43423000000
                    ,0.0],
                    [
                        5.97038000000,
                        50.43420600000
                    ,0.0],
                    [
                        5.97007200000,
                        50.43415000000
                    ,0.0],
                    [
                        5.96975900000,
                        50.43406500000
                    ,0.0],
                    [
                        5.96950400000,
                        50.43395600000
                    ,0.0],
                    [
                        5.96920800000,
                        50.43378200000
                    ,0.0],
                    [
                        5.96901900000,
                        50.43360800000
                    ,0.0],
                    [
                        5.96881200000,
                        50.43335800000
                    ,0.0],
                    [
                        5.96797700000,
                        50.43202800000
                    ,0.0],
                    [
                        5.96723100000,
                        50.43084500000
                    ,0.0],
                    [
                        5.96707100000,
                        50.43066100000
                    ,0.0],
                    [
                        5.96688200000,
                        50.43053400000
                    ,0.0],
                    [
                        5.96662200000,
                        50.43044000000
                    ,0.0],
                    [
                        5.96636100000,
                        50.43039300000
                    ,0.0],
                    [
                        5.96611900000,
                        50.43038800000
                    ,0.0],
                    [
                        5.96587600000,
                        50.43042100000
                    ,0.0],
                    [
                        5.96566900000,
                        50.43048200000
                    ,0.0],
                    [
                        5.96532500000,
                        50.43062400000
                    ,0.0],
                    [
                        5.96510000000,
                        50.43068500000
                    ,0.0],
                    [
                        5.96482800000,
                        50.43071300000
                    ,0.0],
                    [
                        5.96455600000,
                        50.43069400000
                    ,0.0],
                    [
                        5.96430700000,
                        50.43064300000
                    ,0.0],
                    [
                        5.96409400000,
                        50.43054800000
                    ,0.0],
                    [
                        5.96395800000,
                        50.43044000000
                    ,0.0],
                    [
                        5.96379200000,
                        50.43029400000
                    ,0.0],
                    [
                        5.96242500000,
                        50.42892700000
                    ,0.0],
                    [
                        5.96228900000,
                        50.42884700000
                    ,0.0],
                    [
                        5.96212300000,
                        50.42879000000
                    ,0.0],
                    [
                        5.96192200000,
                        50.42876200000
                    ,0.0],
                    [
                        5.96169700000,
                        50.42877100000
                    ,0.0],
                    [
                        5.96150200000,
                        50.42882800000
                    ,0.0],
                    [
                        5.96057800000,
                        50.42925700000
                    ,0.0],
                    [
                        5.96003400000,
                        50.42951100000
                    ,0.0],
                    [
                        5.95989800000,
                        50.42962400000
                    ,0.0],
                    [
                        5.95975600000,
                        50.42976100000
                    ,0.0],
                    [
                        5.95967300000,
                        50.42989300000
                    ,0.0],
                    [
                        5.95961400000,
                        50.43004900000
                    ,0.0],
                    [
                        5.95960200000,
                        50.43020900000
                    ,0.0],
                    [
                        5.95964300000,
                        50.43040200000
                    ,0.0],
                    [
                        5.95973800000,
                        50.43056700000
                    ,0.0],
                    [
                        5.95986200000,
                        50.43077900000
                    ,0.0],
                    [
                        5.96004600000,
                        50.43110000000
                    ,0.0],
                    [
                        5.96036500000,
                        50.43146300000
                    ,0.0],
                    [
                        5.96071500000,
                        50.43177900000
                    ,0.0],
                    [
                        5.96124700000,
                        50.43216000000
                    ,0.0],
                    [
                        5.96213500000,
                        50.43271200000
                    ,0.0],
                    [
                        5.96265600000,
                        50.43297100000
                    ,0.0],
                    [
                        5.96310000000,
                        50.43313600000
                    ,0.0],
                    [
                        5.96538500000,
                        50.43389500000
                    ,0.0],
                    [
                        5.96571600000,
                        50.43402700000
                    ,0.0],
                    [
                        5.96603000000,
                        50.43418300000
                    ,0.0],
                    [
                        5.96632000000,
                        50.43435700000
                    ,0.0],
                    [
                        5.96656800000,
                        50.43454600000
                    ,0.0],
                    [
                        5.96679900000,
                        50.43474400000
                    ,0.0],
                    [
                        5.96710700000,
                        50.43510600000
                    ,0.0],
                    [
                        5.96735600000,
                        50.43545500000
                    ,0.0],
                    [
                        5.96792400000,
                        50.43626100000
                    ,0.0],
                    [
                        5.96802400000,
                        50.43643600000
                    ,0.0],
                    [
                        5.96808400000,
                        50.43662400000
                    ,0.0],
                    [
                        5.96809500000,
                        50.43686000000
                    ,0.0],
                    [
                        5.96803600000,
                        50.43707200000
                    ,0.0],
                    [
                        5.96769900000,
                        50.43762400000
                    ,0.0],
                    [
                        5.96733200000,
                        50.43823200000
                    ,0.0],
                    [
                        5.96688800000,
                        50.43899100000
                    ,0.0],
                    [
                        5.96677500000,
                        50.43927300000
                    ,0.0],
                    [
                        5.96666900000,
                        50.43960800000
                    ,0.0],
                    [
                        5.96660400000,
                        50.43991900000
                    ,0.0],
                    [
                        5.96656200000,
                        50.44018300000
                    ,0.0],
                    [
                        5.96643200000,
                        50.44140400000
                    ,0.0],
                    [
                        5.96645600000,
                        50.44148400000
                    ,0.0],
                    [
                        5.96653300000,
                        50.44154100000
                    ,0.0],
                    [
                        5.96665100000,
                        50.44156000000
                    ,0.0],
                    [
                        5.96685200000,
                        50.44154100000
                    ,0.0],
                    [
                        5.96706000000,
                        50.44154100000
                    ,0.0],
                    [
                        5.96720200000,
                        50.44156000000
                    ,0.0],
                    [
                        5.96729600000,
                        50.44162600000
                    ,0.0],
                    [
                        5.96732000000,
                        50.44170100000
                    ,0.0],
                    [
                        5.96726100000,
                        50.44180000000
                    ,0.0],
                    [
                        5.96653300000,
                        50.44255900000
                    ,0.0],
                    [
                        5.96551347779,
                        50.44369914649
                    ,0.0],
                    [
                        5.96502000000,
                        50.44425100000
                    ,0.0
                    ]
                ]
            }
        },
        {
            "type": "Feature",
            "properties": {
                "place": "startsector"
            },
            "geometry": {
                "type": "Point",
                "coordinates": [
                    5.97685249319,
                    50.43338087847,
                    0.0
                ]
            }
        },
        {
            "type": "Feature",
            "properties": {
                "place": "startfinish"
            },
            "geometry": {
                "type": "Point",
                "coordinates": [
                    5.96537437916,
                    50.44359087789,
                    0.0
                ]
            }
        },
        {
            "type": "Feature",
            "properties": {
                "place": "startsector"
            },
            "geometry": {
                "type": "Point",
                "coordinates": [
                    5.96072501651,
                    50.42915434306,
                    0.0
                ]
            }
        }
    ]
}
