{
    "type": "FeatureCollection",
    "generator": "JOSM",
    "features": [
        {
            "type": "Feature",
            "properties": {
                "place": "startsector"
            },
            "geometry": {
                "type": "Point",
                "coordinates": [
                    -8.62916311786,
                    37.23239372450
                ]
            }
        },
        {
            "type": "Feature",
            "properties": {
                "opened": "2008",
                "firstgp": "2020",
                "Name": "Autódromo Internacional do Algarve",
                "Location": "Portimão",
                "altitude": "44",
                "id": "pt-2008",
                "length": "4653"
            },
            "geometry": {
                "type": "LineString",
                "coordinates": [
                    [
                        -8.63081000000,
                        37.23211300000
                    ],
                    [
                        -8.63181500000,
                        37.23485900000
                    ],
                    [
                        -8.63204100000,
                        37.23551300000
                    ],
                    [
                        -8.63204900000,
                        37.23559500000
                    ],
                    [
                        -8.63199600000,
                        37.23567100000
                    ],
                    [
                        -8.63189100000,
                        37.23575500000
                    ],
                    [
                        -8.63175800000,
                        37.23582200000
                    ],
                    [
                        -8.63112300000,
                        37.23619900000
                    ],
                    [
                        -8.63067800000,
                        37.23644700000
                    ],
                    [
                        -8.63052700000,
                        37.23648200000
                    ],
                    [
                        -8.63040900000,
                        37.23647600000
                    ],
                    [
                        -8.62897700000,
                        37.23619800000
                    ],
                    [
                        -8.62889900000,
                        37.23614100000
                    ],
                    [
                        -8.62886700000,
                        37.23607800000
                    ],
                    [
                        -8.62885800000,
                        37.23601900000
                    ],
                    [
                        -8.62888200000,
                        37.23594700000
                    ],
                    [
                        -8.62896700000,
                        37.23587800000
                    ],
                    [
                        -8.62978300000,
                        37.23549500000
                    ],
                    [
                        -8.62990700000,
                        37.23541300000
                    ],
                    [
                        -8.63001000000,
                        37.23529400000
                    ],
                    [
                        -8.63004300000,
                        37.23522200000
                    ],
                    [
                        -8.63008300000,
                        37.23510200000
                    ],
                    [
                        -8.63006700000,
                        37.23491000000
                    ],
                    [
                        -8.62916311786,
                        37.23239372450
                    ],
                    [
                        -8.62850300000,
                        37.23055600000
                    ],
                    [
                        -8.62842200000,
                        37.23036100000
                    ],
                    [
                        -8.62832000000,
                        37.23029200000
                    ],
                    [
                        -8.62820900000,
                        37.23029000000
                    ],
                    [
                        -8.62810100000,
                        37.23033800000
                    ],
                    [
                        -8.62803700000,
                        37.23042100000
                    ],
                    [
                        -8.62802000000,
                        37.23058900000
                    ],
                    [
                        -8.62785000000,
                        37.23186700000
                    ],
                    [
                        -8.62782700000,
                        37.23212200000
                    ],
                    [
                        -8.62786900000,
                        37.23241700000
                    ],
                    [
                        -8.62794500000,
                        37.23262200000
                    ],
                    [
                        -8.62804800000,
                        37.23280700000
                    ],
                    [
                        -8.62884100000,
                        37.23400700000
                    ],
                    [
                        -8.62888200000,
                        37.23414000000
                    ],
                    [
                        -8.62886300000,
                        37.23428500000
                    ],
                    [
                        -8.62880600000,
                        37.23441200000
                    ],
                    [
                        -8.62866800000,
                        37.23456400000
                    ],
                    [
                        -8.62805900000,
                        37.23514000000
                    ],
                    [
                        -8.62796900000,
                        37.23516900000
                    ],
                    [
                        -8.62786700000,
                        37.23518200000
                    ],
                    [
                        -8.62771300000,
                        37.23515800000
                    ],
                    [
                        -8.62758900000,
                        37.23509000000
                    ],
                    [
                        -8.62752800000,
                        37.23500600000
                    ],
                    [
                        -8.62704800000,
                        37.23237300000
                    ],
                    [
                        -8.62701800000,
                        37.23225500000
                    ],
                    [
                        -8.62694100000,
                        37.23210800000
                    ],
                    [
                        -8.62686700000,
                        37.23199200000
                    ],
                    [
                        -8.62669700000,
                        37.23184400000
                    ],
                    [
                        -8.62645500000,
                        37.23171000000
                    ],
                    [
                        -8.62483800000,
                        37.23104800000
                    ],
                    [
                        -8.62470200000,
                        37.23094500000
                    ],
                    [
                        -8.62454500000,
                        37.23076600000
                    ],
                    [
                        -8.62439900000,
                        37.23046400000
                    ],
                    [
                        -8.62437700000,
                        37.23034000000
                    ],
                    [
                        -8.62440300000,
                        37.23024000000
                    ],
                    [
                        -8.62445700000,
                        37.23017200000
                    ],
                    [
                        -8.62455800000,
                        37.23009900000
                    ],
                    [
                        -8.62494219122,
                        37.23000556028
                    ],
                    [
                        -8.62628900000,
                        37.22967800000
                    ],
                    [
                        -8.62640100000,
                        37.22963000000
                    ],
                    [
                        -8.62656100000,
                        37.22952500000
                    ],
                    [
                        -8.62673200000,
                        37.22937500000
                    ],
                    [
                        -8.62685700000,
                        37.22919000000
                    ],
                    [
                        -8.62691700000,
                        37.22897700000
                    ],
                    [
                        -8.62712500000,
                        37.22787400000
                    ],
                    [
                        -8.62710800000,
                        37.22777100000
                    ],
                    [
                        -8.62703900000,
                        37.22769400000
                    ],
                    [
                        -8.62692600000,
                        37.22760600000
                    ],
                    [
                        -8.62675900000,
                        37.22758900000
                    ],
                    [
                        -8.62662300000,
                        37.22761100000
                    ],
                    [
                        -8.62656200000,
                        37.22764900000
                    ],
                    [
                        -8.62548600000,
                        37.22868600000
                    ],
                    [
                        -8.62533100000,
                        37.22874900000
                    ],
                    [
                        -8.62516600000,
                        37.22877700000
                    ],
                    [
                        -8.62495600000,
                        37.22873700000
                    ],
                    [
                        -8.62478400000,
                        37.22861500000
                    ],
                    [
                        -8.62466000000,
                        37.22847800000
                    ],
                    [
                        -8.62461000000,
                        37.22838000000
                    ],
                    [
                        -8.62455900000,
                        37.22817900000
                    ],
                    [
                        -8.62456400000,
                        37.22806400000
                    ],
                    [
                        -8.62459600000,
                        37.22793100000
                    ],
                    [
                        -8.62467400000,
                        37.22779800000
                    ],
                    [
                        -8.62489000000,
                        37.22756000000
                    ],
                    [
                        -8.62597700000,
                        37.22651800000
                    ],
                    [
                        -8.62621200000,
                        37.22636000000
                    ],
                    [
                        -8.62642100000,
                        37.22624900000
                    ],
                    [
                        -8.62658800000,
                        37.22618500000
                    ],
                    [
                        -8.62684800000,
                        37.22611200000
                    ],
                    [
                        -8.62709300000,
                        37.22607500000
                    ],
                    [
                        -8.62740200000,
                        37.22607400000
                    ],
                    [
                        -8.62764400000,
                        37.22610400000
                    ],
                    [
                        -8.62788800000,
                        37.22615600000
                    ],
                    [
                        -8.62812900000,
                        37.22624600000
                    ],
                    [
                        -8.62837000000,
                        37.22635700000
                    ],
                    [
                        -8.62856800000,
                        37.22650900000
                    ],
                    [
                        -8.62873300000,
                        37.22666100000
                    ],
                    [
                        -8.62890900000,
                        37.22686700000
                    ],
                    [
                        -8.62997482636,
                        37.22980790277
                    ],
                    [
                        -8.63077800000,
                        37.23202400000
                    ],
                    [
                        -8.63081000000,
                        37.23211300000
                    ]
                ]
            }
        },
        {
            "type": "Feature",
            "properties": {
                "place": "startsector"
            },
            "geometry": {
                "type": "Point",
                "coordinates": [
                    -8.62494219122,
                    37.23000556028
                ]
            }
        },
        {
            "type": "Feature",
            "properties": {
                "place": "startfinish"
            },
            "geometry": {
                "type": "Point",
                "coordinates": [
                    -8.62997482636,
                    37.22980790277
                ]
            }
        }
    ]
}