{
    "type": "FeatureCollection",
    "generator": "JOSM",
    "features": [
        {
            "type": "Feature",
            "properties": {
                "place": "startsector"
            },
            "geometry": {
                "type": "Point",
                "coordinates": [
                    29.40824117300,
                    40.95723068452
                ]
            }
        },
        {
            "type": "Feature",
            "properties": {
                "place": "startsector"
            },
            "geometry": {
                "type": "Point",
                "coordinates": [
                    29.41302852482,
                    40.95959485104
                ]
            }
        },
        {
            "type": "Feature",
            "properties": {
                "Name": "Intercity Istanbul Park",
                "id": "tr-2005",
                "opened": "2005",
                "firstgp": "2005",
                "Location": "Istanbul",
                "length": "5338",
                "altitude": "150"
            },
            "geometry": {
                "type": "LineString",
                "coordinates": [
                    [
                        29.40615200000,
                        40.95213100000
                    ],
                    [
                        29.40884000000,
                        40.95258100000
                    ],
                    [
                        29.40905100000,
                        40.95265400000
                    ],
                    [
                        29.40914900000,
                        40.95279800000
                    ],
                    [
                        29.40912200000,
                        40.95291600000
                    ],
                    [
                        29.40894800000,
                        40.95346000000
                    ],
                    [
                        29.40884500000,
                        40.95374600000
                    ],
                    [
                        29.40884500000,
                        40.95395900000
                    ],
                    [
                        29.40891600000,
                        40.95426400000
                    ],
                    [
                        29.40916000000,
                        40.95459100000
                    ],
                    [
                        29.40956100000,
                        40.95488200000
                    ],
                    [
                        29.41037100000,
                        40.95524400000
                    ],
                    [
                        29.41083900000,
                        40.95539100000
                    ],
                    [
                        29.41142200000,
                        40.95553800000
                    ],
                    [
                        29.41248900000,
                        40.95569100000
                    ],
                    [
                        29.41317100000,
                        40.95571500000
                    ],
                    [
                        29.41355200000,
                        40.95571800000
                    ],
                    [
                        29.41409400000,
                        40.95565900000
                    ],
                    [
                        29.41433000000,
                        40.95568400000
                    ],
                    [
                        29.41458600000,
                        40.95577100000
                    ],
                    [
                        29.41483000000,
                        40.95595500000
                    ],
                    [
                        29.41495400000,
                        40.95617100000
                    ],
                    [
                        29.41500800000,
                        40.95638200000
                    ],
                    [
                        29.41489200000,
                        40.95705000000
                    ],
                    [
                        29.41492100000,
                        40.95718500000
                    ],
                    [
                        29.41504500000,
                        40.95727200000
                    ],
                    [
                        29.41523500000,
                        40.95727200000
                    ],
                    [
                        29.41581000000,
                        40.95721900000
                    ],
                    [
                        29.41631900000,
                        40.95721900000
                    ],
                    [
                        29.41659200000,
                        40.95727200000
                    ],
                    [
                        29.41671200000,
                        40.95737800000
                    ],
                    [
                        29.41673900000,
                        40.95750500000
                    ],
                    [
                        29.41659800000,
                        40.95809300000
                    ],
                    [
                        29.41650700000,
                        40.95822400000
                    ],
                    [
                        29.41632900000,
                        40.95832700000
                    ],
                    [
                        29.41302852482,
                        40.95959485104
                    ],
                    [
                        29.41195300000,
                        40.96000800000
                    ],
                    [
                        29.41167600000,
                        40.96016700000
                    ],
                    [
                        29.41157700000,
                        40.96031700000
                    ],
                    [
                        29.41158500000,
                        40.96046400000
                    ],
                    [
                        29.41163900000,
                        40.96059100000
                    ],
                    [
                        29.41176300000,
                        40.96069100000
                    ],
                    [
                        29.41213100000,
                        40.96086000000
                    ],
                    [
                        29.41244600000,
                        40.96091600000
                    ],
                    [
                        29.41271400000,
                        40.96092900000
                    ],
                    [
                        29.41405000000,
                        40.96074400000
                    ],
                    [
                        29.41515500000,
                        40.96054800000
                    ],
                    [
                        29.41571300000,
                        40.96042600000
                    ],
                    [
                        29.41598600000,
                        40.96038200000
                    ],
                    [
                        29.41616000000,
                        40.96041600000
                    ],
                    [
                        29.41703200000,
                        40.96077900000
                    ],
                    [
                        29.41714000000,
                        40.96089100000
                    ],
                    [
                        29.41741900000,
                        40.96152800000
                    ],
                    [
                        29.41741500000,
                        40.96168700000
                    ],
                    [
                        29.41733600000,
                        40.96183100000
                    ],
                    [
                        29.41700100000,
                        40.96226100000
                    ],
                    [
                        29.41670400000,
                        40.96252000000
                    ],
                    [
                        29.41624900000,
                        40.96285300000
                    ],
                    [
                        29.41603800000,
                        40.96292500000
                    ],
                    [
                        29.41572300000,
                        40.96294400000
                    ],
                    [
                        29.41529300000,
                        40.96290300000
                    ],
                    [
                        29.40974900000,
                        40.96165800000
                    ],
                    [
                        29.40942600000,
                        40.96152400000
                    ],
                    [
                        29.40931500000,
                        40.96141400000
                    ],
                    [
                        29.40933100000,
                        40.96126800000
                    ],
                    [
                        29.40953400000,
                        40.96102100000
                    ],
                    [
                        29.40967000000,
                        40.96081200000
                    ],
                    [
                        29.40967000000,
                        40.96057700000
                    ],
                    [
                        29.40824117300,
                        40.95723068452
                    ],
                    [
                        29.40790400000,
                        40.95644100000
                    ],
                    [
                        29.40768500000,
                        40.95622900000
                    ],
                    [
                        29.40734000000,
                        40.95598600000
                    ],
                    [
                        29.40018500000,
                        40.95305600000
                    ],
                    [
                        29.40005200000,
                        40.95295000000
                    ],
                    [
                        29.40002300000,
                        40.95280600000
                    ],
                    [
                        29.40005600000,
                        40.95267200000
                    ],
                    [
                        29.40020500000,
                        40.95253100000
                    ],
                    [
                        29.40036200000,
                        40.95248700000
                    ],
                    [
                        29.40083800000,
                        40.95251600000
                    ],
                    [
                        29.40097000000,
                        40.95247200000
                    ],
                    [
                        29.40103700000,
                        40.95239700000
                    ],
                    [
                        29.40102000000,
                        40.95222800000
                    ],
                    [
                        29.40088400000,
                        40.95160500000
                    ],
                    [
                        29.40090400000,
                        40.95148600000
                    ],
                    [
                        29.40101600000,
                        40.95140500000
                    ],
                    [
                        29.40117700000,
                        40.95140500000
                    ],
                    [
                        29.40341608765,
                        40.95173175026
                    ],
                    [
                        29.40615200000,
                        40.95213100000
                    ]
                ]
            }
        },
        {
            "type": "Feature",
            "properties": {
                "place": "startfinish"
            },
            "geometry": {
                "type": "Point",
                "coordinates": [
                    29.40341608765,
                    40.95173175026
                ]
            }
        }
    ]
}